TISAT 1                 
1 36799U 10035E   26068.75703561  .00024554  00000+0  91005-3 0  9996
2 36799  98.0645   6.8512 0001343 159.3030 200.8262 15.27628633852505
STARLINK-31159          
1 58740U 24005N   26068.46422473 -.00000317  00000+0 -21620-5 0  9997
2 58740  42.9962 220.6332 0000922 252.9268 107.1482 15.26737472120508
